NORAD_CAT_ID,OBJECT_NAME,OBJECT_TYPE,EPOCH,MEAN_MOTION,ECCENTRICITY,INCLINATION,RA_OF_ASC_NODE,ARG_OF_PERICENTER,MEAN_ANOMALY,BSTAR,MEAN_MOTION_DOT,MEAN_MOTION_DDOT,TLE_LINE0,TLE_LINE1,TLE_LINE2,SEMIMAJOR_AXIS,PERIOD,APOGEE,PERIGEE,DECAYED
52375.0,STARLINK-3785,PAYLOAD,2024-02-21 23:10:20,15.08849121,0.0001521,53.2173,301.2977,106.9698,253.146,0.00021042,3.063e-05,0.0,0 STARLINK-3785,1 52375U 22045AW  24052.96552073  .00003063  00000-0  21042-3 0  9999,2 52375  53.2173 301.2977 0001521 106.9698 253.1460 15.08849121103196,6917.853,95.437,540.77,538.665,0.0
52375.0,STARLINK-3785,PAYLOAD,2024-02-22 19:50:21,15.08842544,0.0001548,53.2173,297.432,110.2041,249.9118,0.00016219,2.294e-05,0.0,0 STARLINK-3785,1 52375U 22045AW  24053.82664179  .00002294  00000-0  16219-3 0  9991,2 52375  53.2173 297.4320 0001548 110.2041 249.9118 15.08842544103323,6917.873,95.437,540.808,538.667,0.0
52375.0,STARLINK-3785,PAYLOAD,2024-02-22 21:25:44,15.08843801,0.0001526,53.2171,297.1351,105.5644,254.5517,9.7258e-05,1.26e-05,0.0,0 STARLINK-3785,1 52375U 22045AW  24053.89288128  .00001260  00000-0  97258-4 0  9999,2 52375  53.2171 297.1351 0001526 105.5644 254.5517 15.08843801103337,6917.869,95.437,540.789,538.678,0.0
52375.0,STARLINK-3785,PAYLOAD,2024-02-23 08:33:26,15.08843294,0.0001281,53.2164,295.0513,82.17,277.9437,8.8605e-05,1.123e-05,0.0,0 STARLINK-3785,1 52375U 22045AW  24054.35656084  .00001123  00000-0  88605-4 0  9995,2 52375  53.2164 295.0513 0001281  82.1700 277.9437 15.08843294103401,6917.87,95.437,540.621,538.849,0.0
52375.0,STARLINK-3785,PAYLOAD,2024-02-23 21:16:32,15.08834159,0.0001567,53.2173,292.6744,103.9462,256.1704,9.3823e-06,-1.39e-06,0.0,0 STARLINK-3785,1 52375U 22045AW  24054.88648694 -.00000139  00000-0  93823-5 0  9997,2 52375  53.2173 292.6744 0001567 103.9462 256.1704 15.08834159103488,6917.898,95.438,540.847,538.679,0.0
52375.0,STARLINK-3785,PAYLOAD,2024-02-23 22:51:55,15.08836041,0.0001389,53.2166,292.3798,93.6294,266.4857,4.6213e-05,4.48e-06,0.0,0 STARLINK-3785,1 52375U 22045AW  24054.95272706  .00000448  00000-0  46213-4 0  9994,2 52375  53.2166 292.3798 0001389  93.6294 266.4857 15.08836041103492,6917.892,95.438,540.718,538.797,0.0
52375.0,STARLINK-3785,PAYLOAD,2024-02-24 14:45:46,15.08845064,0.0001338,53.2164,289.4059,99.8991,260.2152,0.00011794,1.59e-05,0.0,0 STARLINK-3785,1 52375U 22045AW  24055.61512459  .00001590  00000-0  11794-3 0  9994,2 52375  53.2164 289.4059 0001338  99.8991 260.2152 15.08845064103599,6917.865,95.437,540.656,538.804,0.0
52375.0,STARLINK-3785,PAYLOAD,2024-02-25 08:15:01,15.08843947,0.000134,53.2161,286.1349,96.832,263.2825,0.0001358,1.874e-05,0.0,0 STARLINK-3785,1 52375U 22045AW  24056.34376493  .00001874  00000-0  13580-3 0  9991,2 52375  53.2161 286.1349 0001340  96.8320 263.2825 15.08843947103709,6917.868,95.437,540.66,538.806,0.0
52375.0,STARLINK-3785,PAYLOAD,2024-02-25 19:22:43,15.08848796,0.000132,53.2158,284.0528,90.1326,269.9817,0.00029335,4.385e-05,0.0,0 STARLINK-3785,1 52375U 22045AW  24056.80744308  .00004385  00000-0  29335-3 0  9991,2 52375  53.2158 284.0528 0001320  90.1326 269.9817 15.08848796103770,6917.854,95.437,540.632,538.805,0.0
52375.0,STARLINK-3785,PAYLOAD,2024-02-25 22:33:29,15.08852288,0.0001308,53.2155,283.458,88.0435,272.0707,0.00031082,4.664e-05,0.0,0 STARLINK-3785,1 52375U 22045AW  24056.93992094  .00004664  00000-0  31082-3 0  9994,2 52375  53.2155 283.4580 0001308  88.0435 272.0707 15.08852288103797,6917.843,95.437,540.613,538.803,0.0
52375.0,STARLINK-3785,PAYLOAD,2024-02-26 00:08:52,15.08854517,0.00013,53.2149,283.1601,85.2148,274.8992,0.00034759,5.25e-05,0.0,0 STARLINK-3785,1 52375U 22045AW  24057.00615986  .00005250  00000-0  34759-3 0  9991,2 52375  53.2149 283.1601 0001300  85.2148 274.8992 15.08854517103808,6917.836,95.437,540.6,538.802,0.0
52375.0,STARLINK-3785,PAYLOAD,2024-02-26 19:13:30,15.08839428,0.0001646,53.2143,279.5917,71.9358,288.1814,7.2887e-05,8.72e-06,0.0,0 STARLINK-3785,1 52375U 22045AW  24057.80104802  .00000872  00000-0  72887-4 0  9999,2 52375  53.2143 279.5917 0001646  71.9358 288.1814 15.08839428103927,6917.882,95.438,540.886,538.608,0.0
52375.0,STARLINK-3785,PAYLOAD,2024-02-26 22:24:16,15.08837431,0.0001474,53.2159,278.9958,77.1617,282.954,1.1419e-05,-1.06e-06,0.0,0 STARLINK-3785,1 52375U 22045AW  24057.93352809 -.00000106  00000-0  11419-4 0  9990,2 52375  53.2159 278.9958 0001474  77.1617 282.9540 15.08837431103949,6917.888,95.438,540.773,538.734,0.0
52375.0,STARLINK-3785,PAYLOAD,2024-02-26 23:59:39,15.08838559,0.0001483,53.2161,278.6978,77.4595,282.6563,3.4955e-05,2.68e-06,0.0,0 STARLINK-3785,1 52375U 22045AW  24057.99976775  .00000268  00000-0  34955-4 0  9998,2 52375  53.2161 278.6978 0001483  77.4595 282.6563 15.08838559103954,6917.885,95.438,540.776,538.724,0.0
52375.0,STARLINK-3785,PAYLOAD,2024-02-27 20:39:40,15.08841876,0.0001266,53.2153,274.832,96.8944,263.2192,0.0001122,1.498e-05,0.0,0 STARLINK-3785,1 52375U 22045AW  24058.86088771  .00001498  00000-0  11220-3 0  9990,2 52375  53.2153 274.8320 0001266  96.8944 263.2192 15.08841876104080,6917.875,95.437,540.615,538.864,0.0
52375.0,STARLINK-3785,PAYLOAD,2024-02-28 14:08:55,15.08838084,0.0001312,53.2152,271.5606,101.7144,258.3995,0.00016341,2.314e-05,0.0,0 STARLINK-3785,1 52375U 22045AW  24059.58953177  .00002314  00000-0  16341-3 0  9998,2 52375  53.2152 271.5606 0001312 101.7144 258.3995 15.08838084104195,6917.886,95.438,540.659,538.844,0.0
52375.0,STARLINK-3785,PAYLOAD,2024-02-28 20:30:28,15.08838451,0.0001277,53.2153,270.372,95.8738,264.24,0.00013501,1.861e-05,0.0,0 STARLINK-3785,1 52375U 22045AW  24059.85449224  .00001861  00000-0  13501-3 0  9992,2 52375  53.2153 270.3720 0001277  95.8738 264.2400 15.08838451104232,6917.885,95.438,540.634,538.867,0.0
52375.0,STARLINK-3785,PAYLOAD,2024-02-29 13:59:42,15.08841111,0.000126,53.215,267.1011,93.8891,266.2245,0.00012126,1.643e-05,0.0,0 STARLINK-3785,1 52375U 22045AW  24060.58313196  .00001643  00000-0  12126-3 0  9992,2 52375  53.2150 267.1011 0001260  93.8891 266.2245 15.08841111104344,6917.877,95.437,540.614,538.87,0.0
52375.0,STARLINK-3785,PAYLOAD,2024-02-29 20:21:15,15.08842446,0.0001235,53.2161,265.9116,95.8202,264.2931,0.00010641,1.406e-05,0.0,0 STARLINK-3785,1 52375U 22045AW  24060.84809045  .00001406  00000-0  10641-3 0  9991,2 52375  53.2161 265.9116 0001235  95.8202 264.2931 15.08842446104384,6917.873,95.437,540.592,538.884,0.0
52375.0,STARLINK-3785,PAYLOAD,2024-02-29 23:32:01,15.08845112,0.0001233,53.2159,265.3163,95.7779,264.3354,0.00012222,1.658e-05,0.0,0 STARLINK-3785,1 52375U 22045AW  24060.98056807  .00001658  00000-0  12222-3 0  9992,2 52375  53.2159 265.3163 0001233  95.7779 264.3354 15.08845112104409,6917.865,95.437,540.583,538.877,0.0
52375.0,STARLINK-3785,PAYLOAD,2024-03-01 20:12:02,15.08843116,0.0001255,53.2166,261.4514,94.1357,265.9778,0.00012222,1.658e-05,0.0,0 STARLINK-3785,1 52375U 22045AW  24061.84169017  .00001658  00000-0  12222-3 0  9996,2 52375  53.2166 261.4514 0001255  94.1357 265.9778 15.08843116104536,6917.871,95.437,540.604,538.868,0.0
52375.0,STARLINK-3785,PAYLOAD,2024-03-02 18:27:26,15.08839203,0.0001189,53.2159,257.2857,85.8166,274.2962,4.576e-05,4.4e-06,0.0,0 STARLINK-3785,1 52375U 22045AW  24062.76905503  .00000440  00000-0  45760-4 0  9998,2 52375  53.2159 257.2857 0001189  85.8166 274.2962 15.08839203104677,6917.883,95.438,540.57,538.925,0.0
52375.0,STARLINK-3785,PAYLOAD,2024-03-03 13:32:04,15.08837227,0.00015,53.2176,253.7243,106.7783,253.3374,5.5574e-05,5.97e-06,0.0,0 STARLINK-3785,1 52375U 22045AW  24063.56393712  .00000597  00000-0  55574-4 0  9997,2 52375  53.2176 253.7243 0001500 106.7783 253.3374 15.08837227104793,6917.889,95.438,540.792,538.716,0.0
52375.0,STARLINK-3785,PAYLOAD,2024-03-03 19:53:36,15.08838683,0.0001477,53.2173,252.5348,106.0963,254.0192,5.8731e-05,6.47e-06,0.0,0 STARLINK-3785,1 52375U 22045AW  24063.82889621  .00000647  00000-0  58731-4 0  9999,2 52375  53.2173 252.5348 0001477 106.0963 254.0192 15.08838683104837,6917.884,95.438,540.771,538.728,0.0
52375.0,STARLINK-3785,PAYLOAD,2024-03-03 21:28:59,15.08841376,0.0001493,53.2174,252.2376,106.5448,253.5709,8.0786e-05,9.98e-06,0.0,0 STARLINK-3785,1 52375U 22045AW  24063.89513417  .00000998  00000-0  80786-4 0  9997,2 52375  53.2174 252.2376 0001493 106.5448 253.5709 15.08841376104849,6917.876,95.437,540.774,538.708,0.0
52375.0,STARLINK-3785,PAYLOAD,2024-03-04 05:25:54,15.08842965,0.0001434,53.2174,250.7473,94.5598,265.5558,0.00023313,3.425e-05,0.0,0 STARLINK-3785,1 52375U 22045AW  24064.22633039  .00003425  00000-0  23313-3 0  9998,2 52375  53.2174 250.7473 0001434  94.5598 265.5558 15.08842965104892,6917.871,95.437,540.728,538.744,0.0
52375.0,STARLINK-3785,PAYLOAD,2024-03-04 19:44:22,15.08848679,0.0001416,53.2164,248.0693,92.448,267.6674,0.00018123,2.598e-05,0.0,0 STARLINK-3785,1 52375U 22045AW  24064.82248700  .00002598  00000-0  18123-3 0  9994,2 52375  53.2164 248.0693 0001416  92.4480 267.6674 15.08848679104982,6917.854,95.437,540.698,538.739,0.0
52375.0,STARLINK-3785,PAYLOAD,2024-03-05 11:38:14,15.08840616,0.0001172,53.2158,245.0951,105.9827,254.1294,9.9186e-05,1.291e-05,0.0,0 STARLINK-3785,1 52375U 22045AW  24065.48488928  .00001291  00000-0  99186-4 0  9993,2 52375  53.2158 245.0951 0001172 105.9827 254.1294 15.08840616105087,6917.879,95.438,540.554,538.933,0.0
52375.0,STARLINK-3785,PAYLOAD,2024-03-05 19:35:10,15.0883723,0.0001232,53.2163,243.6069,93.3764,266.7369,1.6598e-07,-2.85e-06,0.0,0 STARLINK-3785,1 52375U 22045AW  24065.81609323 -.00000285  00000-0  16598-6 0  9995,2 52375  53.2163 243.6069 0001232  93.3764 266.7369 15.08837230105130,6917.889,95.438,540.606,538.902,0.0
52375.0,STARLINK-3785,PAYLOAD,2024-03-06 11:29:01,15.08839839,0.0001104,53.2158,240.6346,97.2165,262.8952,8.9594e-05,1.138e-05,0.0,0 STARLINK-3785,1 52375U 22045AW  24066.47849276  .00001138  00000-0  89594-4 0  9992,2 52375  53.2158 240.6346 0001104  97.2165 262.8952 15.08839839105238,6917.881,95.438,540.51,538.982,0.0
